{"type": "FeatureCollection", "features": [ {"type": "Feature", "properties": {"norad_id": 30272, "name": "FENGYUN 1C DEB", "group": "fengyun-1c-debris", "lat": 48.22547634349237, "lon": -107.61564681589631, "alt_km": 814.836512473069, "timestamp": "2025-12-20T14:38:02.244944+00:00", "meta": {"OBJECT_NAME": "FENGYUN 1C DEB", "OBJECT_ID": "1999-025YH", "EPOCH": "2025-12-19T15:57:22.483584", "MEAN_MOTION": 14.14740629, "ECCENTRICITY": 0.0050542, "INCLINATION": 98.9009, "RA_OF_ASC_NODE": 61.3388, "ARG_OF_PERICENTER": 84.4355, "MEAN_ANOMALY": 276.258, "EPHEMERIS_TYPE": 0, "CLASSIFICATION_TYPE": "U", "NORAD_CAT_ID": 30272, "ELEMENT_SET_NO": 999, "REV_AT_EPOCH": 96954, "BSTAR": 0.00079728827, "MEAN_MOTION_DOT": 1.511e-05, "MEAN_MOTION_DDOT": 0}, "tle": {"line1": "1 30272U 99025YH  25353.66484356  .00001511  00000+0  79729-3 0  9993", "line2": "2 30272  98.9009  61.3388 0050542  84.4355 276.2580 14.14740629969546"}}, "geometry": {"type": "Point", "coordinates": [-107.61564681589631, 48.22547634349237]}}, {"type": "Feature", "properties": {"norad_id": 30273, "name": "FENGYUN 1C DEB", "group": "fengyun-1c-debris", "lat": 53.34269589272497, "lon": -158.98903669247508, "alt_km": 888.1189427973932, "timestamp": "2025-12-20T14:38:02.244954+00:00", "meta": {"OBJECT_NAME": "FENGYUN 1C DEB", "OBJECT_ID": "1999-025YJ", "EPOCH": "2025-12-19T13:08:10.068000", "MEAN_MOTION": 14.02669115, "ECCENTRICITY": 0.0060463, "INCLINATION": 98.8398, "RA_OF_ASC_NODE": 7.9102, "ARG_OF_PERICENTER": 230.2739, "MEAN_ANOMALY": 294.2718, "EPHEMERIS_TYPE": 0, "CLASSIFICATION_TYPE": "U", "NORAD_CAT_ID": 30273, "ELEMENT_SET_NO": 999, "REV_AT_EPOCH": 96624, "BSTAR": 0.00026437, "MEAN_MOTION_DOT": 3.71e-06, "MEAN_MOTION_DDOT": 0}, "tle": {"line1": "1 30273U 99025YJ  25353.54733875  .00000371  00000+0  26437-3 0  9995", "line2": "2 30273  98.8398   7.9102 0060463 230.2739 294.2718 14.02669115966241"}}, "geometry": {"type": "Point", "coordinates": [-158.98903669247508, 53.34269589272497]}}, {"type": "Feature", "properties": {"norad_id": 30274, "name": "FENGYUN 1C DEB", "group": "fengyun-1c-debris", "lat": -74.9401406959933, "lon": -93.40743104385608, "alt_km": 725.6699846810179, "timestamp": "2025-12-20T14:38:02.244964+00:00", "meta": {"OBJECT_NAME": "FENGYUN 1C DEB", "OBJECT_ID": "1999-025YK", "EPOCH": "2025-12-18T22:20:12.989760", "MEAN_MOTION": 14.5174566, "ECCENTRICITY": 0.00048201, "INCLINATION": 99.3017, "RA_OF_ASC_NODE": 122.2612, "ARG_OF_PERICENTER": 198.6084, "MEAN_ANOMALY": 289.1948, "EPHEMERIS_TYPE": 0, "CLASSIFICATION_TYPE": "U", "NORAD_CAT_ID": 30274, "ELEMENT_SET_NO": 999, "REV_AT_EPOCH": 98300, "BSTAR": 0.001872423, "MEAN_MOTION_DOT": 7.479e-05, "MEAN_MOTION_DDOT": 0}, "tle": {"line1": "1 30274U 99025YK  25352.93070590  .00007479  00000+0  18724-2 0  9991", "line2": "2 30274  99.3017 122.2612 0004820 198.6084 289.1948 14.51745660983003"}}, "geometry": {"type": "Point", "coordinates": [-93.40743104385608, -74.9401406959933]}}, {"type": "Feature", "properties": {"norad_id": 30275, "name": "FENGYUN 1C DEB", "group": "fengyun-1c-debris", "lat": 28.482638331003415, "lon": 74.2716687970675, "alt_km": 759.3281242426792, "timestamp": "2025-12-20T14:38:02.244974+00:00", "meta": {"OBJECT_NAME": "FENGYUN 1C DEB", "OBJECT_ID": "1999-025YL", "EPOCH": "2025-12-20T04:40:14.226240", "MEAN_MOTION": 14.4539576, "ECCENTRICITY": 0.00398543, "INCLINATION": 98.6281, "RA_OF_ASC_NODE": 78.5753, "ARG_OF_PERICENTER": 164.9737, "MEAN_ANOMALY": 225.3907, "EPHEMERIS_TYPE": 0, "CLASSIFICATION_TYPE": "U", "NORAD_CAT_ID": 30275, "ELEMENT_SET_NO": 999, "REV_AT_EPOCH": 98192, "BSTAR": 0.0013991754, "MEAN_MOTION_DOT": 4.927e-05, "MEAN_MOTION_DDOT": 0}, "tle": {"line1": "1 30275U 99025YL  25354.19460910  .00004927  00000+0  13992-2 0  9998", "line2": "2 30275  98.6281  78.5753 0039854 164.9737 225.3907 14.45395760981925"}}, "geometry": {"type": "Point", "coordinates": [74.2716687970675, 28.482638331003415]}}, {"type": "Feature", "properties": {"norad_id": 30276, "name": "FENGYUN 1C DEB", "group": "fengyun-1c-debris", "lat": 6.026910778565994, "lon": -112.7760042551093, "alt_km": 808.1290138272743, "timestamp": "2025-12-20T14:38:02.244984+00:00", "meta": {"OBJECT_NAME": "FENGYUN 1C DEB", "OBJECT_ID": "1999-025YM", "EPOCH": "2025-12-20T03:43:42.086208", "MEAN_MOTION": 14.2706619, "ECCENTRICITY": 0.00243101, "INCLINATION": 98.8593, "RA_OF_ASC_NODE": 65.8204, "ARG_OF_PERICENTER": 70.0933, "MEAN_ANOMALY": 290.2863, "EPHEMERIS_TYPE": 0, "CLASSIFICATION_TYPE": "U", "NORAD_CAT_ID": 30276, "ELEMENT_SET_NO": 999, "REV_AT_EPOCH": 97636, "BSTAR": 0.00084714463, "MEAN_MOTION_DOT": 2.025e-05, "MEAN_MOTION_DDOT": 0}, "tle": {"line1": "1 30276U 99025YM  25354.15534822  .00002025  00000+0  84714-3 0  9997", "line2": "2 30276  98.8593  65.8204 0024310  70.0933 290.2863 14.27066190976366"}}, "geometry": {"type": "Point", "coordinates": [-112.7760042551093, 6.026910778565994]}}, {"type": "Feature", "properties": {"norad_id": 30277, "name": "FENGYUN 1C DEB", "group": "fengyun-1c-debris", "lat": -43.033978225207676, "lon": -123.17822111646869, "alt_km": 818.8921616250718, "timestamp": "2025-12-20T14:38:02.244994+00:00", "meta": {"OBJECT_NAME": "FENGYUN 1C DEB", "OBJECT_ID": "1999-025YN", "EPOCH": "2025-12-19T16:13:27.575040", "MEAN_MOTION": 14.13611169, "ECCENTRICITY": 0.012406, "INCLINATION": 98.9729, "RA_OF_ASC_NODE": 64.3678, "ARG_OF_PERICENTER": 158.3816, "MEAN_ANOMALY": 354.7763, "EPHEMERIS_TYPE": 0, "CLASSIFICATION_TYPE": "U", "NORAD_CAT_ID": 30277, "ELEMENT_SET_NO": 999, "REV_AT_EPOCH": 96887, "BSTAR": 0.00090874, "MEAN_MOTION_DOT": 1.8e-05, "MEAN_MOTION_DDOT": 0}, "tle": {"line1": "1 30277U 99025YN  25353.67601360  .00001800  00000+0  90874-3 0  9990", "line2": "2 30277  98.9729  64.3678 0124060 158.3816 354.7763 14.13611169968870"}}, "geometry": {"type": "Point", "coordinates": [-123.17822111646869, -43.033978225207676]}}, {"type": "Feature", "properties": {"norad_id": 30279, "name": "FENGYUN 1C DEB", "group": "fengyun-1c-debris", "lat": -42.34469874687707, "lon": -61.9137449570423, "alt_km": 826.6333428194484, "timestamp": "2025-12-20T14:38:02.245004+00:00", "meta": {"OBJECT_NAME": "FENGYUN 1C DEB", "OBJECT_ID": "1999-025YQ", "EPOCH": "2025-12-19T18:43:15.057696", "MEAN_MOTION": 14.23125964, "ECCENTRICITY": 0.02198321, "INCLINATION": 99.1508, "RA_OF_ASC_NODE": 288.7763, "ARG_OF_PERICENTER": 52.6135, "MEAN_ANOMALY": 338.5131, "EPHEMERIS_TYPE": 0, "CLASSIFICATION_TYPE": "U", "NORAD_CAT_ID": 30279, "ELEMENT_SET_NO": 999, "REV_AT_EPOCH": 97711, "BSTAR": 0.00056615432, "MEAN_MOTION_DOT": 1.588e-05, "MEAN_MOTION_DDOT": 0}, "tle": {"line1": "1 30279U 99025YQ  25353.78003539  .00001588  00000+0  56615-3 0  9996", "line2": "2 30279  99.1508 288.7763 0219832  52.6135 338.5131 14.23125964977119"}}, "geometry": {"type": "Point", "coordinates": [-61.9137449570423, -42.34469874687707]}}, {"type": "Feature", "properties": {"norad_id": 30280, "name": "FENGYUN 1C DEB", "group": "fengyun-1c-debris", "lat": 70.53593555683364, "lon": -170.42655855872482, "alt_km": 947.421749314075, "timestamp": "2025-12-20T14:38:02.245014+00:00", "meta": {"OBJECT_NAME": "FENGYUN 1C DEB", "OBJECT_ID": "1999-025YR", "EPOCH": "2025-12-18T22:53:02.635008", "MEAN_MOTION": 13.98331723, "ECCENTRICITY": 0.00801608, "INCLINATION": 98.7749, "RA_OF_ASC_NODE": 342.0739, "ARG_OF_PERICENTER": 312.2074, "MEAN_ANOMALY": 101.9456, "EPHEMERIS_TYPE": 0, "CLASSIFICATION_TYPE": "U", "NORAD_CAT_ID": 30280, "ELEMENT_SET_NO": 999, "REV_AT_EPOCH": 96493, "BSTAR": 5.3519479e-05, "MEAN_MOTION_DOT": 3.6e-07, "MEAN_MOTION_DDOT": 0}, "tle": {"line1": "1 30280U 99025YR  25352.95350272  .00000036  00000+0  53519-4 0  9993", "line2": "2 30280  98.7749 342.0739 0080160 312.2074 101.9456 13.98331723964938"}}, "geometry": {"type": "Point", "coordinates": [-170.42655855872482, 70.53593555683364]}}, {"type": "Feature", "properties": {"norad_id": 30281, "name": "FENGYUN 1C DEB", "group": "fengyun-1c-debris", "lat": -46.65897805607729, "lon": -6.382365742652915, "alt_km": 867.4242098199684, "timestamp": "2025-12-20T14:38:02.245024+00:00", "meta": {"OBJECT_NAME": "FENGYUN 1C DEB", "OBJECT_ID": "1999-025YS", "EPOCH": "2025-12-19T21:58:30.443232", "MEAN_MOTION": 14.10480532, "ECCENTRICITY": 0.0028122, "INCLINATION": 98.7573, "RA_OF_ASC_NODE": 343.5409, "ARG_OF_PERICENTER": 216.1399, "MEAN_ANOMALY": 173.6664, "EPHEMERIS_TYPE": 0, "CLASSIFICATION_TYPE": "U", "NORAD_CAT_ID": 30281, "ELEMENT_SET_NO": 999, "REV_AT_EPOCH": 97322, "BSTAR": 0.00019804, "MEAN_MOTION_DOT": 3.11e-06, "MEAN_MOTION_DDOT": 0}, "tle": {"line1": "1 30281U 99025YS  25353.91563013  .00000311  00000+0  19804-3 0  9994", "line2": "2 30281  98.7573 343.5409 0028122 216.1399 173.6664 14.10480532973223"}}, "geometry": {"type": "Point", "coordinates": [-6.382365742652915, -46.65897805607729]}}, {"type": "Feature", "properties": {"norad_id": 30282, "name": "FENGYUN 1C DEB", "group": "fengyun-1c-debris", "lat": 42.30070263300993, "lon": -174.701795641105, "alt_km": 985.3692373011272, "timestamp": "2025-12-20T14:38:02.245034+00:00", "meta": {"OBJECT_NAME": "FENGYUN 1C DEB", "OBJECT_ID": "1999-025YT", "EPOCH": "2025-12-20T05:45:44.253792", "MEAN_MOTION": 14.1298555, "ECCENTRICITY": 0.02098764, "INCLINATION": 98.5014, "RA_OF_ASC_NODE": 357.1245, "ARG_OF_PERICENTER": 340.5876, "MEAN_ANOMALY": 76.246, "EPHEMERIS_TYPE": 0, "CLASSIFICATION_TYPE": "U", "NORAD_CAT_ID": 30282, "ELEMENT_SET_NO": 999, "REV_AT_EPOCH": 97457, "BSTAR": 0.00026557035, "MEAN_MOTION_DOT": 5.67e-06, "MEAN_MOTION_DDOT": 0}, "tle": {"line1": "1 30282U 99025YT  25354.24009553  .00000567  00000+0  26557-3 0  9992", "line2": "2 30282  98.5014 357.1245 0209876 340.5876  76.2460 14.12985550974573"}}, "geometry": {"type": "Point", "coordinates": [-174.701795641105, 42.30070263300993]}}]}